[{"OBJECT_NAME":"STARLINK-34312","OBJECT_ID":"2025-142R","EPOCH":"2026-03-09T23:21:11.585664","MEAN_MOTION":14.98336997,"ECCENTRICITY":0.00023746,"INCLINATION":70.0006,"RA_OF_ASC_NODE":313.7209,"ARG_OF_PERICENTER":269.784,"MEAN_ANOMALY":90.3047,"EPHEMERIS_TYPE":0,"CLASSIFICATION_TYPE":"U","NORAD_CAT_ID":64711,"ELEMENT_SET_NO":999,"REV_AT_EPOCH":3969,"BSTAR":0.0002393619,"MEAN_MOTION_DOT":2.765e-5,"MEAN_MOTION_DDOT":0},{"OBJECT_NAME":"FENGYUN 1C DEB","OBJECT_ID":"1999-025EB","EPOCH":"2026-03-09T21:27:48.971520","MEAN_MOTION":14.9364801,"ECCENTRICITY":0.00856057,"INCLINATION":99.085,"RA_OF_ASC_NODE":69.4314,"ARG_OF_PERICENTER":339.4426,"MEAN_ANOMALY":20.3352,"EPHEMERIS_TYPE":0,"CLASSIFICATION_TYPE":"U","NORAD_CAT_ID":29833,"ELEMENT_SET_NO":999,"REV_AT_EPOCH":1871,"BSTAR":0.0015409165,"MEAN_MOTION_DOT":0.00017454,"MEAN_MOTION_DDOT":0}]
